STARLINK-36511          
1 67451C 26008G   26106.64284722  .00041477  00000+0  15022-2 0  1063
2 67451  43.0024 351.2235 0001291 257.0374  74.9909 15.27560212    10
STARLINK-36524          
1 67452C 26008H   26106.61715278  .00080873  00000+0  29345-2 0  1062
2 67452  43.0033 351.4664 0001370 264.5873 243.5103 15.27479065    19
STARLINK-36518          
1 67453C 26008J   26106.61020833  .00036336  00000+0  13165-2 0  1067
2 67453  43.0023 351.2112 0001217 250.3999 332.7883 15.27551249    18
STARLINK-36517          
1 67454C 26008K   26106.62618056  .00040828  00000+0  14785-2 0  1069
2 67454  43.0022 351.2333 0001332 257.6533  17.9884 15.27564410    12
STARLINK-36516          
1 67455C 26008L   26106.55118056  .00037673  00000+0  13648-2 0  1068
2 67455  43.0040 351.2072 0001533 263.4561 143.2008 15.27553812    17
STARLINK-36493          
1 67456C 26008M   26106.55326389  .00038459  00000+0  13927-2 0  1062
2 67456  43.0040 351.2453 0001678 265.6813 131.2156 15.27564905    11
STARLINK-36529          
1 67457C 26008N   26106.52895833  .00027908  00000+0  10109-2 0  1061
2 67457  43.0027 351.7224 0001453 257.6671 223.9358 15.27563275    14
STARLINK-36528          
1 67458C 26008P   26106.51159722  .00022122  00000+0  80114-3 0  1068
2 67458  43.0037 351.2318 0001452 263.1594   3.3920 15.27571872    17
STARLINK-36546          
1 67459C 26008Q   26106.64493056  .00040215  00000+0  14564-2 0  1062
2 67459  43.0031 351.2534 0001422 260.3909  61.7691 15.27562676    13
STARLINK-36523          
1 67460C 26008R   26106.59770833  .00038170  00000+0  13824-2 0  1064
2 67460  43.0023 351.4343 0001376 261.6815 195.9835 15.27561978    18
STARLINK-36522          
1 67461C 26008S   26106.63520833  .00038283  00000+0  13866-2 0  1064
2 67461  43.0009 350.9335 0001343 259.7622 164.6279 15.27559328    17
STARLINK-36504          
1 67462C 26008T   26106.62340278  .00043655  00000+0  15810-2 0  1067
2 67462  43.0023 350.9400 0001614 259.6416 120.9963 15.27560159    17
STARLINK-36505          
1 67463C 26008U   26106.64770833  .00031822  00000+0  11530-2 0  1062
2 67463  43.0028 350.7542 0001537 269.6098 266.0853 15.27550799    18
STARLINK-36421          
1 67464C 26008V   26106.54840278  .00035907  00000+0  13006-2 0  1061
2 67464  43.0034 351.0856 0001375 261.2427 186.7317 15.27559570    11
STARLINK-36437          
1 67465C 26008W   26106.60881944  .00045493  00000+0  16480-2 0  1064
2 67465  43.0034 350.8380 0001499 262.7197 115.4409 15.27551986    12
STARLINK-36520          
1 67466C 26008X   26106.60951389  .00034864  00000+0  12642-2 0  1062
2 67466  43.0027 351.4182 0001342 278.9733 222.5476 15.27523797    17
STARLINK-36425          
1 67467C 26008Y   26106.65048611  .00035789  00000+0  12963-2 0  1066
2 67467  43.0022 351.1104 0001380 262.4677 139.9175 15.27560697    18
STARLINK-36414          
1 67468C 26008Z   26106.51784722  .00024339  00000+0  88140-3 0  1062
2 67468  43.0035 351.2932 0001511 266.3438 352.1705 15.27572660    18
STARLINK-36441          
1 67469C 26008AA  26106.62131944  .00035744  00000+0  12945-2 0  1068
2 67469  43.0024 351.3089 0001233 260.0642 320.5310 15.27564545    14
STARLINK-36454          
1 67470C 26008AB  26106.59770833  .00044241  00000+0  16018-2 0  1069
2 67470  43.0038 350.9432 0001516 267.2814  28.4802 15.27568059    16
STARLINK-36334          
1 67471C 26008AC  26106.56715278  .00036924  00000+0  13369-2 0  1064
2 67471  43.0031 351.6961 0001399 265.2581 341.6269 15.27572857    11
STARLINK-36269          
1 67472C 26008AD  26106.62965278  .00042412  00000+0  15363-2 0  1064
2 67472  43.0025 351.1565 0001355 265.4578  43.4718 15.27554540    15
STARLINK-36408          
1 67473C 26008AE  26106.51368056  .00024732  00000+0  89660-3 0  1061
2 67473  43.0010 351.7057 0001532 251.4023 181.5466 15.27536986    17
STARLINK-36551          
1 67493C 26012A   26106.61298611 -.00018314  00000+0 -66331-3 0  1069
2 67493  43.0013 100.6075 0001526 271.6851 224.7987 15.27588059    15
STARLINK-36396          
1 67494C 26012B   26106.53520833  .00018957  00000+0  68673-3 0  1067
2 67494  43.0046 100.8106 0001413 276.7215 257.6526 15.27564391    11
STARLINK-36550          
1 67495C 26012C   26106.59006944 -.00008399  00000+0 -30423-3 0  1069
2 67495  43.0032 100.6405 0001502 274.7075 138.0510 15.27578839    15
STARLINK-36534          
1 67496C 26012D   26106.61437500 -.00025857  00000+0 -93671-3 0  1061
2 67496  43.0044 100.4112 0001605 276.2077 305.7487 15.27585703    19
STARLINK-36555          
1 67497C 26012E   26106.60951389 -.00020404  00000+0 -73925-3 0  1060
2 67497  43.0041 100.4735 0001531 273.4188 267.6218 15.27577983    17
STARLINK-36081          
1 67498C 26012F   26106.60326389 -.00018938  00000+0 -68636-3 0  1069
2 67498  43.0047 100.4294 0001383 273.1707 268.8956 15.27566949    15
STARLINK-36558          
1 67499C 26012G   26106.56159722 -.00000919  00000+0 -33299-4 0  1068
2 67499  43.0043 100.6144 0001548 276.3650  57.4137 15.27582357    17
STARLINK-36557          
1 67500C 26012H   26106.62479167 -.00029608  00000+0 -10725-2 0  1069
2 67500  43.0042 100.1925 0001256 277.5301  65.4441 15.27591162    14
STARLINK-36433          
1 67501C 26012J   26106.56854167 -.00000175  00000+0 -63543-5 0  1067
2 67501  43.0032 100.4576 0001256 273.5844 140.9356 15.27573564    17
STARLINK-36554          
1 67502C 26012K   26106.65743056 -.00038600  00000+0 -13983-2 0  1066
2 67502  43.0011  99.8735 0001114 269.6283 309.6461 15.27593236    18
STARLINK-36552          
1 67503C 26012L   26106.58729167 -.00016203  00000+0 -58699-3 0  1065
2 67503  43.0005 100.2100 0001320 272.5398 301.8125 15.27579721    18
STARLINK-36512          
1 67504C 26012M   26106.63937500 -.00033394  00000+0 -12098-2 0  1066
2 67504  43.0003  99.8196 0001391 269.8559 273.6938 15.27588888    13
STARLINK-36545          
1 67505C 26012N   26106.60604167 -.00020452  00000+0 -74091-3 0  1067
2 67505  43.0001  99.9563 0001362 273.3707 107.8839 15.27582879    16
STARLINK-36553          
1 67506C 26012P   26106.63937500 -.00035285  00000+0 -12782-2 0  1069
2 67506  42.9996  99.7136 0001454 270.4660 315.5377 15.27592218    13
STARLINK-36521          
1 67507C 26012Q   26106.63798611 -.00034045  00000+0 -12335-2 0  1065
2 67507  42.9996  99.6862 0001406 264.7266 327.6910 15.27584023    16
STARLINK-36526          
1 67508C 26012R   26106.63381944 -.00032425  00000+0 -11745-2 0  1067
2 67508  42.9999  99.6573 0001436 273.3822 317.4114 15.27592400    17
STARLINK-36541          
1 67509C 26012S   26106.61229167 -.00018004  00000+0 -65218-3 0  1066
2 67509  43.0016 100.6051 0001560 273.6549 226.0730 15.27582904    18
STARLINK-36549          
1 67510C 26012T   26106.55256944  .00011266  00000+0  40803-3 0  1068
2 67510  42.9993 100.1190 0001457 275.0902 221.3038 15.27575536    17
STARLINK-36540          
1 67511C 26012U   26106.59145833 -.00009367  00000+0 -33930-3 0  1061
2 67511  43.0025 100.6707 0002020 276.8893 129.3599 15.27580403    18
STARLINK-36538          
1 67512C 26012V   26106.51368056  .00033175  00000+0  12019-2 0  1064
2 67512  43.0036 101.0241 0001596 277.4374  88.9207 15.27554776    17
STARLINK-36531          
1 67513C 26012W   26106.60881944 -.00025281  00000+0 -91584-3 0  1067
2 67513  43.0046 100.3484 0001407 273.5114 313.2409 15.27585793    11
STARLINK-36530          
1 67514C 26012X   26106.58520833 -.00007791  00000+0 -28221-3 0  1066
2 67514  43.0042 100.4316 0001430 276.5144 201.4684 15.27581256    18
STARLINK-36543          
1 67515C 26012Y   26106.59701389 -.00018723  00000+0 -67815-3 0  1064
2 67515  43.0036 100.3148 0001347 274.3768 289.8246 15.27586981    13
STARLINK-36537          
1 67516C 26012Z   26106.65118056 -.00036853  00000+0 -13349-2 0  1061
2 67516  43.0008  99.8622 0001269 271.5848 287.4480 15.27594030    11
STARLINK-36544          
1 67517C 26012AA  26106.61229167 -.00028083  00000+0 -10174-2 0  1063
2 67517  43.0025 100.1696 0001354 272.0370  37.5092 15.27584236    19
STARLINK-36412          
1 67518C 26012AB  26106.60743056 -.00021308  00000+0 -77179-3 0  1063
2 67518  43.0002  99.9599 0001327 275.0673 106.7652 15.27588865    14
STARLINK-36415          
1 67519C 26012AC  26106.55118056  .00012101  00000+0  43836-3 0  1066
2 67519  42.9991 100.2187 0001470 275.7710 177.6018 15.27568758    19
STARLINK-36547          
1 67520C 26012AD  26106.59770833 -.00022185  00000+0 -80317-3 0  1069
2 67520  43.0001 100.0644 0001274 283.7054  23.3155 15.27605030    17
STARLINK-36444          
1 67521C 26012AE  26106.61645833 -.00024228  00000+0 -87760-3 0  1063
2 67521  43.0003 100.0117 0001374 273.1239 115.9605 15.27587874    17
STARLINK-36587          
1 67532C 26014A   26106.62201389  .00076909  00000+0  51666-3 0  1069
2 67532  97.2851 353.4806 0001470  84.3974  80.6238 15.75152430    14
STARLINK-36417          
1 67533C 26014B   26106.53451389  .00060524  00000+0  40682-3 0  1069
2 67533  97.2849 353.2425 0001449  87.7348 323.4832 15.75147346    13
STARLINK-36576          
1 67534C 26014C   26106.59979167  .00079361  00000+0  53340-3 0  1069
2 67534  97.2857 353.3994 0001527  74.9920 190.1300 15.75139425    14
STARLINK-36574          
1 67535C 26014D   26106.62618056  .00075700  00000+0  50867-3 0  1065
2 67535  97.2856 353.4555 0001539  85.3070  35.3425 15.75146927    16
STARLINK-36572          
1 67536C 26014E   26106.59493056  .00106560  00000+0  71605-3 0  1065
2 67536  97.2850 353.3401 0001404  92.5304  19.0505 15.75131897    19
STARLINK-36561          
1 67537C 26014F   26106.62548611  .00087662  00000+0  58904-3 0  1066
2 67537  97.2849 353.3571 0001410  87.7771 162.9593 15.75141525    11
STARLINK-36397          
1 67538C 26014G   26106.63381944  .00073674  00000+0  49498-3 0  1068
2 67538  97.2849 353.3563 0001446  84.9827 190.9755 15.75151732    15
